[{"OBJECT_NAME":"NEXSAT-1","OBJECT_ID":"2024-024E","EPOCH":"2026-03-09T22:47:24.778176","MEAN_MOTION":15.32166372,"ECCENTRICITY":0.00099795,"INCLINATION":97.3124,"RA_OF_ASC_NODE":144.1918,"ARG_OF_PERICENTER":108.5709,"MEAN_ANOMALY":251.6617,"EPHEMERIS_TYPE":0,"CLASSIFICATION_TYPE":"U","NORAD_CAT_ID":58921,"ELEMENT_SET_NO":999,"REV_AT_EPOCH":11669,"BSTAR":0.00031433612,"MEAN_MOTION_DOT":9.702e-5,"MEAN_MOTION_DDOT":0},{"OBJECT_NAME":"STARLINK-32721","OBJECT_ID":"2024-251G","EPOCH":"2026-03-09T23:21:34.614720","MEAN_MOTION":15.30215784,"ECCENTRICITY":7.991e-5,"INCLINATION":53.159,"RA_OF_ASC_NODE":333.8584,"ARG_OF_PERICENTER":93.8735,"MEAN_ANOMALY":266.2357,"EPHEMERIS_TYPE":0,"CLASSIFICATION_TYPE":"U","NORAD_CAT_ID":62438,"ELEMENT_SET_NO":999,"REV_AT_EPOCH":6793,"BSTAR":0.0011678628,"MEAN_MOTION_DOT":0.00034407,"MEAN_MOTION_DDOT":0}]
